NUSAT-48 (HENRIETTA LE*)
1 60498U 24149AG  26068.80506098  .00012988  00000+0  45212-3 0  9999
2 60498  97.3923 150.8264 0002754 263.3026  96.7901 15.29812597 86946
STARLINK-32297          
1 61521U 24183N   26068.48024192  .00000724  00000+0  36568-4 0  9999
2 61521  53.1602 143.1773 0001196  82.8704 277.2432 15.30183595 79627
